IRIDIUM 63              
1 25286U 98021B   25071.56384473  .00000645  00000+0  21351-3 0  9997
2 25286  86.3968 122.6804 0002186  97.3110 262.8336 14.36415712409979
IRIDIUM 69              
1 25319U 98026A   25071.59434290  .00000851  00000+0  25980-3 0  9996
2 25319  86.3994 136.2427 0002550  38.6695 321.4686 14.40811001409154
IRIDIUM 71              
1 25320U 98026B   25071.61436003  .00000737  00000+0  22305-3 0  9996
2 25320  86.3980 130.9450 0004030  70.8931 289.2704 14.41019557409681
IRIDIUM 73              
1 25344U 98032C   25071.55675305  .00001141  00000+0  28068-3 0  9994
2 25344  86.4352  87.8675 0002064  75.1430 285.0003 14.51490727416549
IRIDIUM 82              
1 25467U 98051A   25071.26291957  .00031725  00000+0  10803-2 0  9994
2 25467  86.3751 157.1690 0093972 303.3244  55.9030 15.26032466409149
